CCSDS_OMM_VERS = 2.0
CREATION_DATE  = 
ORIGINATOR     = 

OBJECT_NAME    = SL-16 R/B
OBJECT_ID      = 1993-016B
CENTER_NAME    = EARTH
REF_FRAME      = TEME
TIME_SYSTEM    = UTC
MEAN_ELEMENT_THEORY = SGP/SGP4

EPOCH          = 2026-01-03T02:53:36.800448
MEAN_MOTION    = 14.15296307
ECCENTRICITY   = .0008103
INCLINATION    = 71.0089
RA_OF_ASC_NODE = 352.8964
ARG_OF_PERICENTER = 54.3138
MEAN_ANOMALY   = 305.8738

EPHEMERIS_TYPE = 0
CLASSIFICATION_TYPE = U
NORAD_CAT_ID   = 22566
ELEMENT_SET_NO = 999
REV_AT_EPOCH   = 69289
BSTAR          = .17146E-4
MEAN_MOTION_DOT = -.14E-6
MEAN_MOTION_DDOT = 0

CCSDS_OMM_VERS = 2.0
CREATION_DATE  = 
ORIGINATOR     = 

OBJECT_NAME    = COSMOS 2242
OBJECT_ID      = 1993-024A
CENTER_NAME    = EARTH
REF_FRAME      = TEME
TIME_SYSTEM    = UTC
MEAN_ELEMENT_THEORY = SGP/SGP4

EPOCH          = 2026-01-02T23:17:28.213152
MEAN_MOTION    = 14.96217107
ECCENTRICITY   = .0016804
INCLINATION    = 82.5197
RA_OF_ASC_NODE = 329.5504
ARG_OF_PERICENTER = 160.3383
MEAN_ANOMALY   = 199.8491

EPHEMERIS_TYPE = 0
CLASSIFICATION_TYPE = U
NORAD_CAT_ID   = 22626
ELEMENT_SET_NO = 999
REV_AT_EPOCH   = 77056
BSTAR          = .39016E-3
MEAN_MOTION_DOT = .4437E-4
MEAN_MOTION_DDOT = 0

CCSDS_OMM_VERS = 2.0
CREATION_DATE  = 
ORIGINATOR     = 

OBJECT_NAME    = SL-16 R/B
OBJECT_ID      = 1993-059B
CENTER_NAME    = EARTH
REF_FRAME      = TEME
TIME_SYSTEM    = UTC
MEAN_ELEMENT_THEORY = SGP/SGP4

EPOCH          = 2026-01-03T02:50:33.400032
MEAN_MOTION    = 14.17219452
ECCENTRICITY   = .0019192
INCLINATION    = 70.9900
RA_OF_ASC_NODE = 149.4044
ARG_OF_PERICENTER = 305.4016
MEAN_ANOMALY   = 54.5314

EPHEMERIS_TYPE = 0
CLASSIFICATION_TYPE = U
NORAD_CAT_ID   = 22803
ELEMENT_SET_NO = 999
REV_AT_EPOCH   = 67024
BSTAR          = -.14151E-4
MEAN_MOTION_DOT = -.77E-6
MEAN_MOTION_DDOT = 0

CCSDS_OMM_VERS = 2.0
CREATION_DATE  = 
ORIGINATOR     = 

OBJECT_NAME    = ARIANE 40 R/B
OBJECT_ID      = 1993-061H
CENTER_NAME    = EARTH
REF_FRAME      = TEME
TIME_SYSTEM    = UTC
MEAN_ELEMENT_THEORY = SGP/SGP4

EPOCH          = 2026-01-03T03:02:40.881984
MEAN_MOTION    = 14.32818746
ECCENTRICITY   = .0011745
INCLINATION    = 98.5044
RA_OF_ASC_NODE = 73.2647
ARG_OF_PERICENTER = 116.7236
MEAN_ANOMALY   = 243.5151

EPHEMERIS_TYPE = 0
CLASSIFICATION_TYPE = U
NORAD_CAT_ID   = 22830
ELEMENT_SET_NO = 999
REV_AT_EPOCH   = 68471
BSTAR          = .22165E-3
MEAN_MOTION_DOT = .562E-5
MEAN_MOTION_DDOT = 0

CCSDS_OMM_VERS = 2.0
CREATION_DATE  = 
ORIGINATOR     = 

OBJECT_NAME    = COSMOS 2278
OBJECT_ID      = 1994-023A
CENTER_NAME    = EARTH
REF_FRAME      = TEME
TIME_SYSTEM    = UTC
MEAN_ELEMENT_THEORY = SGP/SGP4

EPOCH          = 2026-01-03T04:16:00.871968
MEAN_MOTION    = 14.14354859
ECCENTRICITY   = .000739
INCLINATION    = 71.0543
RA_OF_ASC_NODE = 312.1581
ARG_OF_PERICENTER = 140.5719
MEAN_ANOMALY   = 219.5943

EPHEMERIS_TYPE = 0
CLASSIFICATION_TYPE = U
NORAD_CAT_ID   = 23087
ELEMENT_SET_NO = 999
REV_AT_EPOCH   = 63554
BSTAR          = .26952E-3
MEAN_MOTION_DOT = .469E-5
MEAN_MOTION_DDOT = 0

CCSDS_OMM_VERS = 2.0
CREATION_DATE  = 
ORIGINATOR     = 

OBJECT_NAME    = SL-16 R/B
OBJECT_ID      = 1994-023B
CENTER_NAME    = EARTH
REF_FRAME      = TEME
TIME_SYSTEM    = UTC
MEAN_ELEMENT_THEORY = SGP/SGP4

EPOCH          = 2026-01-02T23:18:35.375328
MEAN_MOTION    = 14.14999171
ECCENTRICITY   = .000254
INCLINATION    = 70.9978
RA_OF_ASC_NODE = 208.9000
ARG_OF_PERICENTER = 355.1568
MEAN_ANOMALY   = 4.9530

EPHEMERIS_TYPE = 0
CLASSIFICATION_TYPE = U
NORAD_CAT_ID   = 23088
ELEMENT_SET_NO = 999
REV_AT_EPOCH   = 63679
BSTAR          = .12298E-3
MEAN_MOTION_DOT = .19E-5
MEAN_MOTION_DDOT = 0

CCSDS_OMM_VERS = 2.0
CREATION_DATE  = 
ORIGINATOR     = 

OBJECT_NAME    = SL-16 R/B
OBJECT_ID      = 1994-074B
CENTER_NAME    = EARTH
REF_FRAME      = TEME
TIME_SYSTEM    = UTC
MEAN_ELEMENT_THEORY = SGP/SGP4

EPOCH          = 2026-01-03T01:02:25.120320
MEAN_MOTION    = 14.79319503
ECCENTRICITY   = .0007984
INCLINATION    = 97.7181
RA_OF_ASC_NODE = 36.4990
ARG_OF_PERICENTER = 77.8723
MEAN_ANOMALY   = 311.3636

EPHEMERIS_TYPE = 0
CLASSIFICATION_TYPE = U
NORAD_CAT_ID   = 23343
ELEMENT_SET_NO = 999
REV_AT_EPOCH   = 67754
BSTAR          = .13901E-3
MEAN_MOTION_DOT = .986E-5
MEAN_MOTION_DDOT = 0

CCSDS_OMM_VERS = 2.0
CREATION_DATE  = 
ORIGINATOR     = 

OBJECT_NAME    = SL-16 R/B
OBJECT_ID      = 1994-077B
CENTER_NAME    = EARTH
REF_FRAME      = TEME
TIME_SYSTEM    = UTC
MEAN_ELEMENT_THEORY = SGP/SGP4

EPOCH          = 2026-01-02T18:23:44.873376
MEAN_MOTION    = 14.15550121
ECCENTRICITY   = .00050201
INCLINATION    = 70.9825
RA_OF_ASC_NODE = 131.1796
ARG_OF_PERICENTER = 267.2227
MEAN_ANOMALY   = 92.8322

EPHEMERIS_TYPE = 0
CLASSIFICATION_TYPE = U
NORAD_CAT_ID   = 23405
ELEMENT_SET_NO = 999
REV_AT_EPOCH   = 60690
BSTAR          = -.42738569E-4
MEAN_MOTION_DOT = -.132E-5
MEAN_MOTION_DDOT = 0

CCSDS_OMM_VERS = 2.0
CREATION_DATE  = 
ORIGINATOR     = 

OBJECT_NAME    = ARIANE 40+ R/B
OBJECT_ID      = 1995-021B
CENTER_NAME    = EARTH
REF_FRAME      = TEME
TIME_SYSTEM    = UTC
MEAN_ELEMENT_THEORY = SGP/SGP4

EPOCH          = 2026-01-03T03:16:09.337152
MEAN_MOTION    = 14.39715464
ECCENTRICITY   = .000637
INCLINATION    = 98.4622
RA_OF_ASC_NODE = 75.4643
ARG_OF_PERICENTER = 347.0165
MEAN_ANOMALY   = 42.9355

EPHEMERIS_TYPE = 0
CLASSIFICATION_TYPE = U
NORAD_CAT_ID   = 23561
ELEMENT_SET_NO = 999
REV_AT_EPOCH   = 60981
BSTAR          = .21608E-3
MEAN_MOTION_DOT = .633E-5
MEAN_MOTION_DDOT = 0

CCSDS_OMM_VERS = 2.0
CREATION_DATE  = 
ORIGINATOR     = 

OBJECT_NAME    = SL-16 R/B
OBJECT_ID      = 1995-058B
CENTER_NAME    = EARTH
REF_FRAME      = TEME
TIME_SYSTEM    = UTC
MEAN_ELEMENT_THEORY = SGP/SGP4

EPOCH          = 2026-01-03T02:57:57.668832
MEAN_MOTION    = 14.15484146
ECCENTRICITY   = .0014239
INCLINATION    = 71.0224
RA_OF_ASC_NODE = 317.9088
ARG_OF_PERICENTER = 226.5056
MEAN_ANOMALY   = 133.4885

EPHEMERIS_TYPE = 0
CLASSIFICATION_TYPE = U
NORAD_CAT_ID   = 23705
ELEMENT_SET_NO = 999
REV_AT_EPOCH   = 55857
BSTAR          = .19067E-3
MEAN_MOTION_DOT = .325E-5
MEAN_MOTION_DDOT = 0

CCSDS_OMM_VERS = 2.0
CREATION_DATE  = 
ORIGINATOR     = 

OBJECT_NAME    = SL-16 R/B
OBJECT_ID      = 1996-051B
CENTER_NAME    = EARTH
REF_FRAME      = TEME
TIME_SYSTEM    = UTC
MEAN_ELEMENT_THEORY = SGP/SGP4

EPOCH          = 2026-01-03T03:50:39.962400
MEAN_MOTION    = 14.12399240
ECCENTRICITY   = .0019395
INCLINATION    = 70.7599
RA_OF_ASC_NODE = 313.9428
ARG_OF_PERICENTER = 235.0804
MEAN_ANOMALY   = 124.8494

EPHEMERIS_TYPE = 0
CLASSIFICATION_TYPE = U
NORAD_CAT_ID   = 24298
ELEMENT_SET_NO = 999
REV_AT_EPOCH   = 51239
BSTAR          = .54182E-4
MEAN_MOTION_DOT = .51E-6
MEAN_MOTION_DDOT = 0

CCSDS_OMM_VERS = 2.0
CREATION_DATE  = 
ORIGINATOR     = 

OBJECT_NAME    = ORBVIEW 2 (SEASTAR)
OBJECT_ID      = 1997-037A
CENTER_NAME    = EARTH
REF_FRAME      = TEME
TIME_SYSTEM    = UTC
MEAN_ELEMENT_THEORY = SGP/SGP4

EPOCH          = 2026-01-03T00:51:54.815040
MEAN_MOTION    = 14.35436624
ECCENTRICITY   = .0001363
INCLINATION    = 98.8471
RA_OF_ASC_NODE = 165.6486
ARG_OF_PERICENTER = 240.9390
MEAN_ANOMALY   = 119.1658

EPHEMERIS_TYPE = 0
CLASSIFICATION_TYPE = U
NORAD_CAT_ID   = 24883
ELEMENT_SET_NO = 999
REV_AT_EPOCH   = 49905
BSTAR          = .23466E-3
MEAN_MOTION_DOT = .628E-5
MEAN_MOTION_DDOT = 0

