SL-16 R/B               
1 22566U 93016B   26003.12056482 -.00000014  00000+0  17146-4 0  9997
2 22566  71.0089 352.8964 0008103  54.3138 305.8738 14.15296307692897
COSMOS 2242             
1 22626U 93024A   26002.97046543  .00004437  00000+0  39016-3 0  9993
2 22626  82.5197 329.5504 0016804 160.3383 199.8491 14.96217107770567
SL-16 R/B               
1 22803U 93059B   26003.11844213 -.00000077  00000+0 -14151-4 0  9997
2 22803  70.9900 149.4044 0019192 305.4016  54.5314 14.17219452670246
ARIANE 40 R/B           
1 22830U 93061H   26003.12686206  .00000562  00000+0  22165-3 0  9997
2 22830  98.5044  73.2647 0011745 116.7236 243.5151 14.32818746684711
COSMOS 2278             
1 23087U 94023A   26003.17778787  .00000469  00000+0  26952-3 0  9996
2 23087  71.0543 312.1581 0007390 140.5719 219.5943 14.14354859635549
SL-16 R/B               
1 23088U 94023B   26002.97124277  .00000190  00000+0  12298-3 0  9992
2 23088  70.9978 208.9000 0002540 355.1568   4.9530 14.14999171636794
SL-16 R/B               
1 23343U 94074B   26003.04334630  .00000986  00000+0  13901-3 0  9992
2 23343  97.7181  36.4990 0007984  77.8723 311.3636 14.79319503677547
SL-16 R/B               
1 23405U 94077B   26002.76649159 -.00000132  00000+0 -42739-4 0  9994
2 23405  70.9825 131.1796 0005020 267.2227  92.8322 14.15550121606902
ARIANE 40+ R/B          
1 23561U 95021B   26003.13621918  .00000633  00000+0  21608-3 0  9997
2 23561  98.4622  75.4643 0006370 347.0165  42.9355 14.39715464609817
SL-16 R/B               
1 23705U 95058B   26003.12358413  .00000325  00000+0  19067-3 0  9997
2 23705  71.0224 317.9088 0014239 226.5056 133.4885 14.15484146558576
SL-16 R/B               
1 24298U 96051B   26003.16018475  .00000051  00000+0  54182-4 0  9998
2 24298  70.7599 313.9428 0019395 235.0804 124.8494 14.12399240512390
ORBVIEW 2 (SEASTAR)     
1 24883U 97037A   26003.03605110  .00000628  00000+0  23466-3 0  9997
2 24883  98.8471 165.6486 0001363 240.9390 119.1658 14.35436624499056
